[Satellite]
VERSION=1.1
NAME=BEIDOU IGSO 3
NICKNAME=BEIDOU IGSO 3
TLE1=1 37384U 11013A   15055.39549887 -.00000166  00000-0  10000-3 0  9998
TLE2=2 37384  56.8081  81.8048 0027879 193.6247 140.3594  1.00291329 14254
